{
    "links": {
        "self": "http://www.neowsapp.com/rest/v1/neo/3624232?api_key=iIulBulltgU6a56xZRHN4H3l9WmuAYTsLGpBGhQ2"
    },
    "id": "3624232",
    "neo_reference_id": "3624232",
    "name": "(2013 AJ91)",
    "designation": "2013 AJ91",
    "nasa_jpl_url": "http://ssd.jpl.nasa.gov/sbdb.cgi?sstr=3624232",
    "absolute_magnitude_h": 19.3,
    "estimated_diameter": {
        "kilometers": {
            "estimated_diameter_min": 0.3669061375,
            "estimated_diameter_max": 0.8204270649
        },
        "meters": {
            "estimated_diameter_min": 366.9061375314,
            "estimated_diameter_max": 820.4270648822
        },
        "miles": {
            "estimated_diameter_min": 0.2279848336,
            "estimated_diameter_max": 0.5097895857
        },
        "feet": {
            "estimated_diameter_min": 1203.7603322587,
            "estimated_diameter_max": 2691.6899315481
        }
    },
    "is_potentially_hazardous_asteroid": false,
    "close_approach_data": [
        {
            "close_approach_date": "2013-01-31",
            "close_approach_date_full": "2013-Jan-31 08:17",
            "epoch_date_close_approach": 1359620220000,
            "relative_velocity": {
                "kilometers_per_second": "30.6967979066",
                "kilometers_per_hour": "110508.472463733",
                "miles_per_hour": "68665.6672372568"
            },
            "miss_distance": {
                "astronomical": "0.3766889126",
                "lunar": "146.5319870014",
                "kilometers": "56351858.977576162",
                "miles": "35015421.4819965556"
            },
            "orbiting_body": "Earth"
        }
    ],
    "orbital_data": {
        "orbit_id": "9",
        "orbit_determination_date": "2017-04-06 08:47:11",
        "first_observation_date": "2013-01-14",
        "last_observation_date": "2013-01-27",
        "data_arc_in_days": 13,
        "observations_used": 53,
        "orbit_uncertainty": "8",
        "minimum_orbit_intersection": ".285716",
        "jupiter_tisserand_invariant": "2.488",
        "epoch_osculation": "2456309.5",
        "eccentricity": ".9286065589448546",
        "semi_major_axis": "2.531336721682552",
        "inclination": "33.29730418061038",
        "ascending_node_longitude": "95.37146201082432",
        "orbital_period": "1471.036016397031",
        "perihelion_distance": ".1807208390301684",
        "perihelion_argument": "165.8217660103563",
        "aphelion_distance": "4.881952604334936",
        "perihelion_time": "2456367.170184994634",
        "mean_anomaly": "345.8866361077153",
        "mean_motion": ".2447254832561737",
        "equinox": "J2000",
        "orbit_class": {
            "orbit_class_type": "APO",
            "orbit_class_description": "Near-Earth asteroid orbits which cross the Earth’s orbit similar to that of 1862 Apollo",
            "orbit_class_range": "a (semi-major axis) > 1.0 AU; q (perihelion) < 1.017 AU"
        }
    },
    "is_sentry_object": false
}